H1 CPF 01  gfz 2022 07 29 00  7101 terrasarx 
H2 0702601  6201 31698    2022 07 29 00 59 42 2022 08 03 00 00 42   120 1 1  0 0 0
H9
10 0 59789  86382.000000  0    -891004.710    902883.153   6760098.084
10 0 59790    102.000000  0    -859033.326   1805290.589   6581506.362
10 0 59790    222.000000  0    -796563.253   2675371.561   6287261.198
10 0 59790    342.000000  0    -705384.137   3497413.600   5882502.985
10 0 59790    462.000000  0    -588053.924   4256568.613   5374310.453
10 0 59790    582.000000  0    -447837.761   4939124.759   4771582.793
10 0 59790    702.000000  0    -288630.090   5532762.038   4084890.116
10 0 59790    822.000000  0    -114860.355   6026782.167   3326290.564
10 0 59790    942.000000  0      68613.589   6412311.137   2509124.186
10 0 59790   1062.000000  0     256624.225   6682473.345   1647775.119
10 0 59790   1182.000000  0     443823.050   6832520.474    757412.044
10 0 59790   1302.000000  0     624814.265   6859920.306   -146285.248
10 0 59790   1422.000000  0     794290.827   6764401.434  -1047410.698
10 0 59790   1542.000000  0     947167.895   6547951.369  -1930120.805
10 0 59790   1662.000000  0    1078710.716   6214770.267  -2778920.359
10 0 59790   1782.000000  0    1184654.749   5771181.129  -3578939.829
10 0 59790   1902.000000  0    1261315.083   5225498.933  -4316198.406
10 0 59790   2022.000000  0    1305682.286   4587862.388  -4977847.297
10 0 59790   2142.000000  0    1315502.515   3870033.372  -5552388.068
10 0 59790   2262.000000  0    1289340.029   3085170.767  -6029864.064
10 0 59790   2382.000000  0    1226621.353   2247581.871  -6402022.869
10 0 59790   2502.000000  0    1127660.224   1372458.509  -6662446.412
10 0 59790   2622.000000  0     993663.684    475603.227  -6806651.676
10 0 59790   2742.000000  0     826718.945   -426852.494  -6832159.906
10 0 59790   2862.000000  0     629761.117  -1318732.894  -6738533.626
10 0 59790   2982.000000  0     406522.591  -2184099.937  -6527381.737
10 0 59790   3102.000000  0     161465.253  -3007529.961  -6202336.157
10 0 59790   3222.000000  0    -100305.353  -3774385.395  -5768997.558
10 0 59790   3342.000000  0    -373141.043  -4471073.486  -5234847.514
10 0 59790   3462.000000  0    -650966.086  -5085289.317  -4609131.000
10 0 59790   3582.000000  0    -927405.507  -5606239.635  -3902707.778
10 0 59790   3702.000000  0   -1195923.839  -6024842.078  -3127873.351
10 0 59790   3822.000000  0   -1449971.160  -6333894.843  -2298151.960
10 0 59790   3942.000000  0   -1683133.666  -6528213.469  -1428064.352
10 0 59790   4062.000000  0   -1889284.810  -6604730.134   -532872.755
10 0 59790   4182.000000  0   -2062733.275  -6562551.430    371691.464
10 0 59790   4302.000000  0   -2198364.306  -6402972.567   1269711.393
10 0 59790   4422.000000  0   -2291770.365  -6129447.351   2145373.416
10 0 59790   4542.000000  0   -2339367.429  -5747514.307   2983254.929
10 0 59790   4662.000000  0   -2338493.538  -5264680.642   3768603.953
10 0 59790   4782.000000  0   -2287487.387  -4690267.825   4487604.099
10 0 59790   4902.000000  0   -2185745.588  -4035223.797   5127619.953
10 0 59790   5022.000000  0   -2033757.832  -3311905.699   5677419.756
10 0 59790   5142.000000  0   -1833117.765  -2533837.286   6127369.438
10 0 59790   5262.000000  0   -1586509.764  -1715450.018   6469595.648
10 0 59790   5382.000000  0   -1297673.307   -871811.630   6698118.098
10 0 59790   5502.000000  0    -971346.013    -18345.404   6808947.588
10 0 59790   5622.000000  0    -613186.273    829451.265   6800150.318
10 0 59790   5742.000000  0    -229675.122   1656287.540   6671880.435
10 0 59790   5862.000000  0     172001.036   2447354.700   6426377.567
10 0 59790   5982.000000  0     584084.574   3188591.167   6067929.739
10 0 59790   6102.000000  0     998394.938   3866933.568   5602803.395
10 0 59790   6222.000000  0    1406489.339   4470550.657   5039139.597
10 0 59790   6342.000000  0    1799833.296   4989055.653   4386817.617
10 0 59790   6462.000000  0    2169977.774   5413691.978   3657286.268
10 0 59790   6582.000000  0    2508739.940   5737488.828   2863367.755
10 0 59790   6702.000000  0    2808382.068   5955386.805   2019032.075
10 0 59790   6822.000000  0    3061785.550   6064323.061   1139145.994
10 0 59790   6942.000000  0    3262613.618   6063275.749    239204.875
10 0 59790   7062.000000  0    3405459.823   5953268.258   -664947.714
10 0 59790   7182.000000  0    3485979.214   5737331.663  -1557407.483
10 0 59790   7302.000000  0    3500997.780   5420427.342  -2422496.799
10 0 59790   7422.000000  0    3448598.236   5009331.416  -3245047.085
10 0 59790   7542.000000  0    3328178.810   4512483.526  -4010669.089
10 0 59790   7662.000000  0    3140484.585   3939805.516  -4706004.086
10 0 59790   7782.000000  0    2887611.629   3302496.132  -5318953.539
10 0 59790   7902.000000  0    2572984.228   2612804.947  -5838882.702
10 0 59790   8022.000000  0    2201306.236   1883791.880  -6256795.441
10 0 59790   8142.000000  0    1778487.445   1129077.618  -6565478.299
10 0 59790   8262.000000  0    1311548.565    362590.425  -6759612.995
10 0 59790   8382.000000  0     808504.894   -401686.713  -6835859.719
10 0 59790   8502.000000  0     278229.230  -1149966.586  -6792908.054
10 0 59790   8622.000000  0    -269701.140  -1868899.850  -6631495.305
10 0 59790   8742.000000  0    -825172.390  -2545806.310  -6354396.057
10 0 59790   8862.000000  0   -1377716.554  -3168895.319  -5966380.626
10 0 59790   8982.000000  0   -1916703.815  -3727469.341  -5474140.739
10 0 59790   9102.000000  0   -2431542.944  -4212108.821  -4886185.941
10 0 59790   9222.000000  0   -2911888.071  -4614836.677  -4212708.548
10 0 59790   9342.000000  0   -3347846.659  -4929256.652  -3465416.590
10 0 59790   9462.000000  0   -3730183.899  -5150662.944  -2657338.486
10 0 59790   9582.000000  0   -4050520.235  -5276118.846  -1802601.112
10 0 59790   9702.000000  0   -4301516.669  -5304501.437   -916183.994
10 0 59790   9822.000000  0   -4477042.580  -5236510.636    -13653.981
10 0 59790   9942.000000  0   -4572321.412  -5074641.690    889114.206
10 0 59790  10062.000000  0   -4584050.484  -4823120.936   1776226.000
10 0 59790  10182.000000  0   -4510490.616  -4487805.396   2632056.476
10 0 59790  10302.000000  0   -4351523.772  -4076049.864   3441533.741
10 0 59790  10422.000000  0   -4108677.956  -3596545.300   4190410.948
10 0 59790  10542.000000  0   -3785117.921  -3059131.903   4865521.736
10 0 59790  10662.000000  0   -3385602.331  -2474592.001   5455011.714
10 0 59790  10782.000000  0   -2916410.343  -1854430.041   5948543.804
10 0 59790  10902.000000  0   -2385238.617  -1210643.375   6337476.176
10 0 59790  11022.000000  0   -1801070.400   -555486.633   6615009.319
10 0 59790  11142.000000  0   -1174018.384     98763.944   6776297.841
10 0 59790  11262.000000  0    -515148.102    740038.986   6818528.045
10 0 59790  11382.000000  0     163716.977   1356697.678   6740964.454
10 0 59790  11502.000000  0     850207.147   1937738.826   6544962.154
10 0 59790  11622.000000  0    1531631.421   2472997.219   6233944.007
10 0 59790  11742.000000  0    2195211.098   2953321.399   5813344.409
10 0 59790  11862.000000  0    2828319.436   3370732.313   5290521.017
10 0 59790  11982.000000  0    3418724.661   3718560.069   4674632.332
10 0 59790  12102.000000  0    3954828.888   3991553.748   3976481.000
10 0 59790  12222.000000  0    4425899.326   4185965.020   3208331.039
10 0 59790  12342.000000  0    4822291.208   4299602.815   2383692.349
10 0 59790  12462.000000  0    5135648.531   4331854.663   1517080.760
10 0 59790  12582.000000  0    5359084.349   4283677.022    623758.255
10 0 59790  12702.000000  0    5487332.559   4157552.608   -280543.898
10 0 59790  12822.000000  0    5516866.614   3957416.310  -1179911.446
10 0 59790  12942.000000  0    5445983.636   3688551.637  -2058535.547
10 0 59790  13062.000000  0    5274851.459   3357460.140  -2900997.830
10 0 59790  13182.000000  0    5005518.071   2971708.517  -3692545.212
10 0 59790  13302.000000  0    4641884.317   2539757.876  -4419350.394
10 0 59790  13422.000000  0    4189639.178   2070777.154  -5068752.318
10 0 59790  13542.000000  0    3656161.590   1574447.294  -5629470.097
10 0 59790  13662.000000  0    3050391.783   1060761.725  -6091790.126
10 0 59790  13782.000000  0    2382674.342    539826.462  -6447723.952
10 0 59790  13902.000000  0    1664577.517     21664.138  -6691134.041
10 0 59790  14022.000000  0     908693.492   -483974.602  -6817829.730
10 0 59790  14142.000000  0     128418.997   -967790.779  -6825632.512
10 0 59790  14262.000000  0    -662277.622  -1421103.356  -6714407.464
10 0 59790  14382.000000  0   -1449099.744  -1836000.477  -6486065.797
10 0 59790  14502.000000  0   -2217675.347  -2205475.172  -6144536.109
10 0 59790  14622.000000  0   -2953813.777  -2523542.264  -5695703.310
10 0 59790  14742.000000  0   -3643763.725  -2785335.752  -5147318.419
10 0 59790  14862.000000  0   -4274471.092  -2987185.906  -4508876.879
10 0 59790  14982.000000  0   -4833829.229  -3126672.744  -3791464.467
10 0 59790  15102.000000  0   -5310917.139  -3202654.996  -3007574.247
10 0 59790  15222.000000  0   -5696221.063  -3215273.889  -2170895.419
10 0 59790  15342.000000  0   -5981833.019  -3165930.657  -1296076.662
10 0 59790  15462.000000  0   -6161621.290  -3057238.192   -398468.732
10 0 59790  15582.000000  0   -6231368.113  -2892947.127    506149.429
10 0 59790  15702.000000  0   -6188871.008  -2677848.395   1401855.376
10 0 59790  15822.000000  0   -6034002.880  -2417653.983   2272873.637
10 0 59790  15942.000000  0   -5768728.639  -2118858.545   3103862.261
10 0 59790  16062.000000  0   -5397081.727  -1788586.930   3880190.437
10 0 59790  16182.000000  0   -4925096.725  -1434429.925   4588202.908
10 0 59790  16302.000000  0   -4360702.196  -1064273.289   5215460.879
10 0 59790  16422.000000  0   -3713579.791   -686125.705   5750958.718
99
